{
  "type": "FeatureCollection",
  "features": [
    {
      "type": "Feature",
      "properties": { "NAME_1": "Thies" },
      "geometry": {
        "type": "Polygon",
        "coordinates": [[[-17.2, 14.5], [-16.6, 14.5], [-16.6, 15.0], [-17.2, 15.0], [-17.2, 14.5]]]
      }
    },
    {
      "type": "Feature",
      "properties": { "NAME_1": "Tambacounda" },
      "geometry": {
        "type": "Polygon",
        "coordinates": [[[-14.0, 13.2], [-13.2, 13.2], [-13.2, 14.5], [-14.0, 14.5], [-14.0, 13.2]]]
      }
    },
    {
      "type": "Feature",
      "properties": { "NAME_1": "Kolda" },
      "geometry": {
        "type": "Polygon",
        "coordinates": [[[-15.5, 12.5], [-14.3, 12.5], [-14.3, 13.3], [-15.5, 13.3], [-15.5, 12.5]]]
      }
    },
    {
      "type": "Feature",
      "properties": { "NAME_1": "Ziguinchor" },
      "geometry": {
        "type": "Polygon",
        "coordinates": [[[-16.7, 12.3], [-16.0, 12.3], [-16.0, 13.0], [-16.7, 13.0], [-16.7, 12.3]]]
      }
    },
    {
      "type": "Feature",
      "properties": { "NAME_1": "Louga" },
      "geometry": {
        "type": "Polygon",
        "coordinates": [[[-16.2, 15.0], [-15.0, 15.0], [-15.0, 15.7], [-16.2, 15.7], [-16.2, 15.0]]]
      }
    },
    {
      "type": "Feature",
      "properties": { "NAME_1": "Diourbel" },
      "geometry": {
        "type": "Polygon",
        "coordinates": [[[-16.7, 14.3], [-16.2, 14.3], [-16.2, 14.9], [-16.7, 14.9], [-16.7, 14.3]]]
      }
    }
  ]
}